{
  "type": "FeatureCollection",
  "features": [
    {
      "type": "Feature",
      "properties": {
        "norad_id": 40938,
        "name": "BEIDOU-3S IGSO-2S (C56)",
        "group": "beidou",
        "lat": 39.303163793404956,
        "lon": 36.75015676011305,
        "alt_km": 35671.210086253144,
        "timestamp": "2025-12-11T13:55:02.430128+00:00",
        "meta_object_name": "BEIDOU-3S IGSO-2S (C56)",
        "meta_object_id": "2015-053A",
        "meta_epoch": "2025-12-10T19:08:53.549664",
        "meta_mean_motion": 1.00269885,
        "meta_eccentricity": 0.00610666,
        "meta_inclination": 49.5143,
        "meta_ra_of_asc_node": 261.0281,
        "meta_arg_of_pericenter": 188.5075,
        "meta_mean_anomaly": 13.4914,
        "meta_ephemeris_type": 0,
        "meta_classification_type": "U",
        "meta_norad_cat_id": 40938,
        "meta_element_set_no": 999,
        "meta_rev_at_epoch": 3746,
        "meta_bstar": 0,
        "meta_mean_motion_dot": -1.54e-06,
        "meta_mean_motion_ddot": 0,
        "tle_line1": "1 40938U 15053A   25344.79784201 -.00000154  00000+0  00000+0 0  9993",
        "tle_line2": "2 40938  49.5143 261.0281 0061066 188.5075  13.4914  1.00269885 37466"
      },
      "geometry": {
        "type": "Point",
        "coordinates": [
          36.75015676011305,
          39.303163793404956
        ]
      }
    },
    {
      "type": "Feature",
      "properties": {
        "norad_id": 41434,
        "name": "BEIDOU-2 IGSO-6 (C13)",
        "group": "beidou",
        "lat": -14.797851187382566,
        "lon": 31.16075395385555,
        "alt_km": 35885.33800766089,
        "timestamp": "2025-12-11T13:55:02.430140+00:00",
        "meta_object_name": "BEIDOU-2 IGSO-6 (C13)",
        "meta_object_id": "2016-021A",
        "meta_epoch": "2025-12-03T15:53:57.382080",
        "meta_mean_motion": 1.00293531,
        "meta_eccentricity": 0.00596341,
        "meta_inclination": 59.9536,
        "meta_ra_of_asc_node": 39.991,
        "meta_arg_of_pericenter": 228.541,
        "meta_mean_anomaly": 135.1173,
        "meta_ephemeris_type": 0,
        "meta_classification_type": "U",
        "meta_norad_cat_id": 41434,
        "meta_element_set_no": 999,
        "meta_rev_at_epoch": 3552,
        "meta_bstar": 0,
        "meta_mean_motion_dot": -1.61e-06,
        "meta_mean_motion_ddot": 0,
        "tle_line1": "1 41434U 16021A   25337.66246970 -.00000161  00000+0  00000+0 0  9993",
        "tle_line2": "2 41434  59.9536  39.9910 0059634 228.5410 135.1173  1.00293531 35525"
      },
      "geometry": {
        "type": "Point",
        "coordinates": [
          31.16075395385555,
          -14.797851187382566
        ]
      }
    },
    {
      "type": "Feature",
      "properties": {
        "norad_id": 41586,
        "name": "BEIDOU-2 G7 (C03)",
        "group": "beidou",
        "lat": -0.808414691133291,
        "lon": 39.72174206004192,
        "alt_km": 35771.031329243815,
        "timestamp": "2025-12-11T13:55:02.430174+00:00",
        "meta_object_name": "BEIDOU-2 G7 (C03)",
        "meta_object_id": "2016-037A",
        "meta_epoch": "2025-12-11T02:03:05.631840",
        "meta_mean_motion": 1.00267887,
        "meta_eccentricity": 0.00043864,
        "meta_inclination": 1.7534,
        "meta_ra_of_asc_node": 67.7301,
        "meta_arg_of_pericenter": 0.3231,
        "meta_mean_anomaly": 153.2176,
        "meta_ephemeris_type": 0,
        "meta_classification_type": "U",
        "meta_norad_cat_id": 41586,
        "meta_element_set_no": 999,
        "meta_rev_at_epoch": 500,
        "meta_bstar": 0,
        "meta_mean_motion_dot": -3.47e-06,
        "meta_mean_motion_ddot": 0,
        "tle_line1": "1 41586U 16037A   25345.08548185 -.00000347  00000+0  00000+0 0  9992",
        "tle_line2": "2 41586   1.7534  67.7301 0004386   0.3231 153.2176  1.00267887  5009"
      },
      "geometry": {
        "type": "Point",
        "coordinates": [
          39.72174206004192,
          -0.808414691133291
        ]
      }
    },
    {
      "type": "Feature",
      "properties": {
        "norad_id": 43001,
        "name": "BEIDOU-3 M1 (C19)",
        "group": "beidou",
        "lat": -53.84707752294988,
        "lon": -45.98104454067706,
        "alt_km": 21517.13233446772,
        "timestamp": "2025-12-11T13:55:02.430188+00:00",
        "meta_object_name": "BEIDOU-3 M1 (C19)",
        "meta_object_id": "2017-069A",
        "meta_epoch": "2025-12-10T02:59:44.237184",
        "meta_mean_motion": 1.86231011,
        "meta_eccentricity": 0.0009053,
        "meta_inclination": 56.5252,
        "meta_ra_of_asc_node": 69.32,
        "meta_arg_of_pericenter": 303.7778,
        "meta_mean_anomaly": 56.1585,
        "meta_ephemeris_type": 0,
        "meta_classification_type": "U",
        "meta_norad_cat_id": 43001,
        "meta_element_set_no": 999,
        "meta_rev_at_epoch": 5508,
        "meta_bstar": 0,
        "meta_mean_motion_dot": -5.2e-07,
        "meta_mean_motion_ddot": 0,
        "tle_line1": "1 43001U 17069A   25344.12481756 -.00000052  00000+0  00000+0 0  9999",
        "tle_line2": "2 43001  56.5252  69.3200 0009053 303.7778  56.1585  1.86231011 55088"
      },
      "geometry": {
        "type": "Point",
        "coordinates": [
          -45.98104454067706,
          -53.84707752294988
        ]
      }
    },
    {
      "type": "Feature",
      "properties": {
        "norad_id": 43002,
        "name": "BEIDOU-3 M2 (C20)",
        "group": "beidou",
        "lat": -48.12660845463521,
        "lon": 21.82722117686706,
        "alt_km": 21519.406010008144,
        "timestamp": "2025-12-11T13:55:02.430209+00:00",
        "meta_object_name": "BEIDOU-3 M2 (C20)",
        "meta_object_id": "2017-069B",
        "meta_epoch": "2025-12-09T12:37:45.819264",
        "meta_mean_motion": 1.8623055,
        "meta_eccentricity": 0.0006254,
        "meta_inclination": 56.5238,
        "meta_ra_of_asc_node": 69.3764,
        "meta_arg_of_pericenter": 332.6094,
        "meta_mean_anomaly": 27.38,
        "meta_ephemeris_type": 0,
        "meta_classification_type": "U",
        "meta_norad_cat_id": 43002,
        "meta_element_set_no": 999,
        "meta_rev_at_epoch": 5506,
        "meta_bstar": 0,
        "meta_mean_motion_dot": -4.8e-07,
        "meta_mean_motion_ddot": 0,
        "tle_line1": "1 43002U 17069B   25343.52622476 -.00000048  00000+0  00000+0 0  9994",
        "tle_line2": "2 43002  56.5238  69.3764 0006254 332.6094  27.3800  1.86230550 55065"
      },
      "geometry": {
        "type": "Point",
        "coordinates": [
          21.82722117686706,
          -48.12660845463521
        ]
      }
    },
    {
      "type": "Feature",
      "properties": {
        "norad_id": 43107,
        "name": "BEIDOU-3 M7 (C27)",
        "group": "beidou",
        "lat": 50.234410652461506,
        "lon": 69.82987709611884,
        "alt_km": 21516.276316317548,
        "timestamp": "2025-12-11T13:55:02.430220+00:00",
        "meta_object_name": "BEIDOU-3 M7 (C27)",
        "meta_object_id": "2018-003A",
        "meta_epoch": "2025-12-10T08:14:11.609952",
        "meta_mean_motion": 1.86232173,
        "meta_eccentricity": 0.00026083,
        "meta_inclination": 54.4988,
        "meta_ra_of_asc_node": 308.8983,
        "meta_arg_of_pericenter": 70.7786,
        "meta_mean_anomaly": 289.2405,
        "meta_ephemeris_type": 0,
        "meta_classification_type": "U",
        "meta_norad_cat_id": 43107,
        "meta_element_set_no": 999,
        "meta_rev_at_epoch": 5383,
        "meta_bstar": 0,
        "meta_mean_motion_dot": -8.2e-07,
        "meta_mean_motion_ddot": 0,
        "tle_line1": "1 43107U 18003A   25344.34318993 -.00000082  00000+0  00000+0 0  9994",
        "tle_line2": "2 43107  54.4988 308.8983 0002608  70.7786 289.2405  1.86232173 53837"
      },
      "geometry": {
        "type": "Point",
        "coordinates": [
          69.82987709611884,
          50.234410652461506
        ]
      }
    },
    {
      "type": "Feature",
      "properties": {
        "norad_id": 43108,
        "name": "BEIDOU-3 M8 (C28)",
        "group": "beidou",
        "lat": 27.04422878390212,
        "lon": 107.45895899751334,
        "alt_km": 21533.00264858847,
        "timestamp": "2025-12-11T13:55:02.430232+00:00",
        "meta_object_name": "BEIDOU-3 M8 (C28)",
        "meta_object_id": "2018-003B",
        "meta_epoch": "2025-12-10T06:54:49.457952",
        "meta_mean_motion": 1.8623067,
        "meta_eccentricity": 0.0004813,
        "meta_inclination": 54.4919,
        "meta_ra_of_asc_node": 308.8832,
        "meta_arg_of_pericenter": 273.6231,
        "meta_mean_anomaly": 86.3126,
        "meta_ephemeris_type": 0,
        "meta_classification_type": "U",
        "meta_norad_cat_id": 43108,
        "meta_element_set_no": 999,
        "meta_rev_at_epoch": 5384,
        "meta_bstar": 0,
        "meta_mean_motion_dot": -8.2e-07,
        "meta_mean_motion_ddot": 0,
        "tle_line1": "1 43108U 18003B   25344.28807243 -.00000082  00000+0  00000+0 0  9999",
        "tle_line2": "2 43108  54.4919 308.8832 0004813 273.6231  86.3126  1.86230670 53841"
      },
      "geometry": {
        "type": "Point",
        "coordinates": [
          107.45895899751334,
          27.04422878390212
        ]
      }
    }
  ]
}